GLOBALSTAR M063         
1 26081U 00008A   25145.39502487 -.00000043  00000+0  57577-3 0  9991
2 26081  51.9919 171.5995 0004763 271.7731 101.2312 11.86174298154870
GLOBALSTAR M060         
1 26083U 00008C   25145.23229992 -.00000002  00000+0  88648-3 0  9991
2 26083  51.9997 120.0444 0003256  73.0706 300.1927 12.17660861149740
GLOBALSTAR M064         
1 26084U 00008D   25145.52075556 -.00000089  00000+0 -82694-4 0  9991
2 26084  52.0034 270.3627 0001243  42.9465 317.1465 11.88534100164406
GLOBALSTAR M065         
1 31571U 07020A   25145.40823749 -.00000082  00000+0  11860-3 0  9999
2 31571  51.9901 295.5999 0009563 255.7972 130.0333 12.62008169830539
GLOBALSTAR M069         
1 31573U 07020C   25145.59652097 -.00000084  00000+0  98926-4 0  9998
2 31573  51.9953 269.6406 0001545 140.7435 232.9017 12.37105072831357
GLOBALSTAR M072         
1 31574U 07020D   25145.47116637 -.00000091  00000+0 -90989-4 0  9991
2 31574  51.9949  52.4430 0000759 318.6363 212.4856 11.91649194828751
GLOBALSTAR M071         
1 31576U 07020F   25145.48549443 -.00000028  00000+0  62583-3 0  9996
2 31576  52.0068 294.4415 0001400  90.1153 339.2073 12.18254071492179
